COSMOS 1629             
1 15574U 85016A   26062.63308740  .00000047  00000+0  00000+0 0  9998
2 15574   9.3203 315.1719 0006676 272.2338 345.5498  1.00271975149396
GSTAR 1                 
1 15677U 85035A   26062.35164795 -.00000122  00000+0  00000+0 0  9997
2 15677  14.3617 349.5227 0002521  84.8762 108.2353  1.00272616124146
TELECOM 1B              
1 15678U 85035B   26062.14364686 -.00000280  00000+0  00000+0 0  9991
2 15678  10.3084 321.5920 0004732 343.9098 191.2535  1.00373728135959
ARABSAT-1B              
1 15825U 85048C   26062.62297955  .00000058  00000+0  00000+0 0  9998
2 15825  12.4907 334.8507 0017259  13.8216  87.3979  1.00433148134376
TELSTAR 303             
1 15826U 85048D   26060.53308168  .00000030  00000+0  00000+0 0  9996
2 15826  14.2530 347.0848 0004423 283.3453 273.8732  0.99881595 45425
INTELSAT 511            
1 15873U 85055A   26062.48206818  .00000064  00000+0  00000+0 0  9998
2 15873  13.2872 339.5119 0010736  79.1576 109.1000  1.00104848123454
RADUGA 16               
1 15946U 85070A   26062.40997493  .00000070  00000+0  00000+0 0  9991
2 15946   9.5982 317.4845 0002918 319.8626 220.2777  1.00256822121161
OPTUS A1 (AUSSAT 1)     
1 15993U 85076B   26061.08385145 -.00000269  00000+0  00000+0 0  9998
2 15993  13.3832 339.6158 0004471 352.3021 192.7186  0.99768360118525
ASC 1                   
1 15994U 85076C   26062.34697563 -.00000057  00000+0  00000+0 0  9994
2 15994  13.8694 344.1268 0002188  18.8108 166.9171  1.00310015116914
COSMOS 1700             
1 16199U 85102A   26062.76627556 -.00000041  00000+0  00000+0 0  9996
2 16199   9.8878 319.5106 0004258 259.7889 284.4709  1.00312244150614
SL-12 R/B(2)            
1 16214U 85102D   26062.63308740  .00000081  00000+0  00000+0 0  9994
2 16214   9.6262 318.6704 0018664 154.9210  99.3384  1.00617432123788
RADUGA 17               
1 16250U 85107A   26062.71070873 -.00000369  00000+0  00000+0 0  9991
2 16250   9.7850 319.0155 0012544 239.3658 348.5011  1.00166971150617
OPTUS A2 (AUSSAT 2)     
1 16275U 85109C   26061.47428556  .00000090  00000+0  00000+0 0  9997
2 16275  13.4453 340.8999 0006350 318.9289 241.9667  0.99943762 45462
STTW-1                  
1 16526U 86010A   26062.67764120 -.00000322  00000+0  00000+0 0  9990
2 16526  10.7666 324.2295 0003945 313.2983 227.8274  1.00244672154407
GSTAR 2                 
1 16649U 86026A   26059.02167960 -.00000091  00000+0  00000+0 0  9990
2 16649  14.2559 346.6730 0003447  12.6884 170.3094  0.99801836115555
COSMOS 1738             
1 16667U 86027A   26061.98516888 -.00000067  00000+0  00000+0 0  9999
2 16667  10.4405 318.5316 0011583 135.5201  57.0676  1.00259621146282
GORIZONT 12             
1 16769U 86044A   26062.72475425 -.00000229  00000+0  00000+0 0  9995
2 16769  10.2175 321.8008 0005365 321.5943 224.5362  1.00344000146204
